ONEWEB-0057             
1 45160U 20008AF  26046.05194511 -.00000269  00000+0 -80567-3 0  9997
2 45160  87.8747  60.6034 0001915  84.8815 275.2531 13.10370113292354
ONEWEB-0058             
1 45161U 20008AG  26046.03867627  .00000319  00000+0  87889-3 0  9999
2 45161  87.8749  60.6154 0001793  97.1974 262.9358 13.10369435292420
ONEWEB-0059             
1 45162U 20008AH  26046.03522108  .00000477  00000+0  13315-2 0  9999
2 45162  87.8747  60.6168 0001754  91.6496 268.4833 13.10370129292329
ONEWEB-0062             
1 45163U 20008AJ  26046.06093459 -.00000739  00000+0 -21548-2 0  9995
2 45163  87.8758  60.5923 0001830 105.1650 254.9680 13.10371775292191
ONEWEB-0065             
1 45164U 20008AK  26046.09152792  .00000656  00000+0  18421-2 0  9997
2 45164  87.8751  60.5968 0002127  81.2905 278.8463 13.10374642291897
ONEWEB-0066             
1 45424U 20020A   26045.99557191  .00000270  00000+0  72669-3 0  9997
2 45424  87.8834  45.3723 0001678  85.9759 274.1560 13.11415430286664
ONEWEB-0067             
1 45425U 20020B   26046.03300814 -.00000272  00000+0 -80289-3 0  9993
2 45425  87.8838  45.2729 0001829  80.2529 279.8806 13.11418663286728
ONEWEB-0080             
1 45426U 20020C   26046.04220884  .00000211  00000+0  55972-3 0  9995
2 45426  87.8830  45.3615 0001901  98.0698 262.0646 13.11420561286693
ONEWEB-0090             
1 45427U 20020D   26045.98553601  .00000624  00000+0  17235-2 0  9991
2 45427  87.8829  45.3741 0001873  91.9089 268.2254 13.11418480286652
ONEWEB-0061             
1 45428U 20020E   26046.01747312 -.00000490  00000+0 -14191-2 0  9992
2 45428  87.8832  45.3526 0001822  88.8886 271.2451 13.11414963286613
ONEWEB-0081             
1 45429U 20020F   26045.99895137  .00000188  00000+0  49384-3 0  9993
2 45429  87.8834  45.3712 0001705  79.8275 280.3045 13.11416191286722
ONEWEB-0069             
1 45430U 20020G   26045.98795023  .00000488  00000+0  13419-2 0  9999
2 45430  87.8833  45.3690 0001803  85.5281 274.6052 13.11415892286651
ONEWEB-0031             
1 45431U 20020H   26046.03625810 -.00000146  00000+0 -44789-3 0  9991
2 45431  87.8825  45.3793 0001902  93.6165 266.5181 13.11418401286649
ONEWEB-0027             
1 45432U 20020J   26045.89675819 -.00000026  00000+0 -10126-3 0  9994
2 45432  87.9116  30.1319 0002217  92.3486 267.7899 13.17650727290258
ONEWEB-0064             
1 45433U 20020K   26046.03456115 -.00000303  00000+0 -89048-3 0  9995
2 45433  87.8821  45.3698 0001925  91.4697 268.6651 13.11418159286670
ONEWEB-0018             
1 45434U 20020L   26045.99048498  .00000446  00000+0  12215-2 0  9998
2 45434  87.8835  45.3732 0001686  92.1070 268.0251 13.11415038286619
ONEWEB-0083             
1 45435U 20020M   26045.98116460  .00000638  00000+0  17655-2 0  9999
2 45435  87.8832  45.3632 0001876  93.4296 266.7047 13.11418067286658
