[{"OBJECT_NAME":"ONEWEB-0057","OBJECT_ID":"2020-008AF","EPOCH":"2026-02-15T01:14:48.057504","MEAN_MOTION":13.10370113,"ECCENTRICITY":0.00019154,"INCLINATION":87.8747,"RA_OF_ASC_NODE":60.6034,"ARG_OF_PERICENTER":84.8815,"MEAN_ANOMALY":275.2531,"EPHEMERIS_TYPE":0,"CLASSIFICATION_TYPE":"U","NORAD_CAT_ID":45160,"ELEMENT_SET_NO":999,"REV_AT_EPOCH":29235,"BSTAR":-0.00080566822,"MEAN_MOTION_DOT":-2.69e-6,"MEAN_MOTION_DDOT":0},{"OBJECT_NAME":"ONEWEB-0058","OBJECT_ID":"2020-008AG","EPOCH":"2026-02-15T00:55:41.629728","MEAN_MOTION":13.10369435,"ECCENTRICITY":0.00017939,"INCLINATION":87.8749,"RA_OF_ASC_NODE":60.6154,"ARG_OF_PERICENTER":97.1974,"MEAN_ANOMALY":262.9358,"EPHEMERIS_TYPE":0,"CLASSIFICATION_TYPE":"U","NORAD_CAT_ID":45161,"ELEMENT_SET_NO":999,"REV_AT_EPOCH":29242,"BSTAR":0.00087888509,"MEAN_MOTION_DOT":3.19e-6,"MEAN_MOTION_DDOT":0},{"OBJECT_NAME":"ONEWEB-0059","OBJECT_ID":"2020-008AH","EPOCH":"2026-02-15T00:50:43.101312","MEAN_MOTION":13.10370129,"ECCENTRICITY":0.00017545,"INCLINATION":87.8747,"RA_OF_ASC_NODE":60.6168,"ARG_OF_PERICENTER":91.6496,"MEAN_ANOMALY":268.4833,"EPHEMERIS_TYPE":0,"CLASSIFICATION_TYPE":"U","NORAD_CAT_ID":45162,"ELEMENT_SET_NO":999,"REV_AT_EPOCH":29232,"BSTAR":0.001331516,"MEAN_MOTION_DOT":4.77e-6,"MEAN_MOTION_DDOT":0},{"OBJECT_NAME":"ONEWEB-0062","OBJECT_ID":"2020-008AJ","EPOCH":"2026-02-15T01:27:44.748576","MEAN_MOTION":13.10371775,"ECCENTRICITY":0.00018309,"INCLINATION":87.8758,"RA_OF_ASC_NODE":60.5923,"ARG_OF_PERICENTER":105.165,"MEAN_ANOMALY":254.968,"EPHEMERIS_TYPE":0,"CLASSIFICATION_TYPE":"U","NORAD_CAT_ID":45163,"ELEMENT_SET_NO":999,"REV_AT_EPOCH":29219,"BSTAR":-0.0021548088,"MEAN_MOTION_DOT":-7.39e-6,"MEAN_MOTION_DDOT":0},{"OBJECT_NAME":"ONEWEB-0065","OBJECT_ID":"2020-008AK","EPOCH":"2026-02-15T02:11:48.012288","MEAN_MOTION":13.10374642,"ECCENTRICITY":0.00021275,"INCLINATION":87.8751,"RA_OF_ASC_NODE":60.5968,"ARG_OF_PERICENTER":81.2905,"MEAN_ANOMALY":278.8463,"EPHEMERIS_TYPE":0,"CLASSIFICATION_TYPE":"U","NORAD_CAT_ID":45164,"ELEMENT_SET_NO":999,"REV_AT_EPOCH":29189,"BSTAR":0.0018420959,"MEAN_MOTION_DOT":6.56e-6,"MEAN_MOTION_DDOT":0},{"OBJECT_NAME":"ONEWEB-0066","OBJECT_ID":"2020-020A","EPOCH":"2026-02-14T23:53:37.413024","MEAN_MOTION":13.1141543,"ECCENTRICITY":0.00016784,"INCLINATION":87.8834,"RA_OF_ASC_NODE":45.3723,"ARG_OF_PERICENTER":85.9759,"MEAN_ANOMALY":274.156,"EPHEMERIS_TYPE":0,"CLASSIFICATION_TYPE":"U","NORAD_CAT_ID":45424,"ELEMENT_SET_NO":999,"REV_AT_EPOCH":28666,"BSTAR":0.00072668846,"MEAN_MOTION_DOT":2.7e-6,"MEAN_MOTION_DDOT":0},{"OBJECT_NAME":"ONEWEB-0067","OBJECT_ID":"2020-020B","EPOCH":"2026-02-15T00:47:31.903296","MEAN_MOTION":13.11418663,"ECCENTRICITY":0.00018292,"INCLINATION":87.8838,"RA_OF_ASC_NODE":45.2729,"ARG_OF_PERICENTER":80.2529,"MEAN_ANOMALY":279.8806,"EPHEMERIS_TYPE":0,"CLASSIFICATION_TYPE":"U","NORAD_CAT_ID":45425,"ELEMENT_SET_NO":999,"REV_AT_EPOCH":28672,"BSTAR":-0.00080288588,"MEAN_MOTION_DOT":-2.72e-6,"MEAN_MOTION_DDOT":0},{"OBJECT_NAME":"ONEWEB-0080","OBJECT_ID":"2020-020C","EPOCH":"2026-02-15T01:00:46.843776","MEAN_MOTION":13.11420561,"ECCENTRICITY":0.00019011,"INCLINATION":87.883,"RA_OF_ASC_NODE":45.3615,"ARG_OF_PERICENTER":98.0698,"MEAN_ANOMALY":262.0646,"EPHEMERIS_TYPE":0,"CLASSIFICATION_TYPE":"U","NORAD_CAT_ID":45426,"ELEMENT_SET_NO":999,"REV_AT_EPOCH":28669,"BSTAR":0.00055971855,"MEAN_MOTION_DOT":2.11e-6,"MEAN_MOTION_DDOT":0},{"OBJECT_NAME":"ONEWEB-0090","OBJECT_ID":"2020-020D","EPOCH":"2026-02-14T23:39:10.311264","MEAN_MOTION":13.1141848,"ECCENTRICITY":0.0001873,"INCLINATION":87.8829,"RA_OF_ASC_NODE":45.3741,"ARG_OF_PERICENTER":91.9089,"MEAN_ANOMALY":268.2254,"EPHEMERIS_TYPE":0,"CLASSIFICATION_TYPE":"U","NORAD_CAT_ID":45427,"ELEMENT_SET_NO":999,"REV_AT_EPOCH":28665,"BSTAR":0.0017235,"MEAN_MOTION_DOT":6.24e-6,"MEAN_MOTION_DDOT":0},{"OBJECT_NAME":"ONEWEB-0061","OBJECT_ID":"2020-020E","EPOCH":"2026-02-15T00:25:09.677568","MEAN_MOTION":13.11414963,"ECCENTRICITY":0.00018221,"INCLINATION":87.8832,"RA_OF_ASC_NODE":45.3526,"ARG_OF_PERICENTER":88.8886,"MEAN_ANOMALY":271.2451,"EPHEMERIS_TYPE":0,"CLASSIFICATION_TYPE":"U","NORAD_CAT_ID":45428,"ELEMENT_SET_NO":999,"REV_AT_EPOCH":28661,"BSTAR":-0.0014190747,"MEAN_MOTION_DOT":-4.9e-6,"MEAN_MOTION_DDOT":0},{"OBJECT_NAME":"ONEWEB-0081","OBJECT_ID":"2020-020F","EPOCH":"2026-02-14T23:58:29.398368","MEAN_MOTION":13.11416191,"ECCENTRICITY":0.0001705,"INCLINATION":87.8834,"RA_OF_ASC_NODE":45.3712,"ARG_OF_PERICENTER":79.8275,"MEAN_ANOMALY":280.3045,"EPHEMERIS_TYPE":0,"CLASSIFICATION_TYPE":"U","NORAD_CAT_ID":45429,"ELEMENT_SET_NO":999,"REV_AT_EPOCH":28672,"BSTAR":0.00049384,"MEAN_MOTION_DOT":1.88e-6,"MEAN_MOTION_DDOT":0},{"OBJECT_NAME":"ONEWEB-0069","OBJECT_ID":"2020-020G","EPOCH":"2026-02-14T23:42:38.899872","MEAN_MOTION":13.11415892,"ECCENTRICITY":0.0001803,"INCLINATION":87.8833,"RA_OF_ASC_NODE":45.369,"ARG_OF_PERICENTER":85.5281,"MEAN_ANOMALY":274.6052,"EPHEMERIS_TYPE":0,"CLASSIFICATION_TYPE":"U","NORAD_CAT_ID":45430,"ELEMENT_SET_NO":999,"REV_AT_EPOCH":28665,"BSTAR":0.0013419,"MEAN_MOTION_DOT":4.88e-6,"MEAN_MOTION_DDOT":0},{"OBJECT_NAME":"ONEWEB-0031","OBJECT_ID":"2020-020H","EPOCH":"2026-02-15T00:52:12.699840","MEAN_MOTION":13.11418401,"ECCENTRICITY":0.00019022,"INCLINATION":87.8825,"RA_OF_ASC_NODE":45.3793,"ARG_OF_PERICENTER":93.6165,"MEAN_ANOMALY":266.5181,"EPHEMERIS_TYPE":0,"CLASSIFICATION_TYPE":"U","NORAD_CAT_ID":45431,"ELEMENT_SET_NO":999,"REV_AT_EPOCH":28664,"BSTAR":-0.00044789197,"MEAN_MOTION_DOT":-1.46e-6,"MEAN_MOTION_DDOT":0},{"OBJECT_NAME":"ONEWEB-0027","OBJECT_ID":"2020-020J","EPOCH":"2026-02-14T21:31:19.907616","MEAN_MOTION":13.17650727,"ECCENTRICITY":0.00022175,"INCLINATION":87.9116,"RA_OF_ASC_NODE":30.1319,"ARG_OF_PERICENTER":92.3486,"MEAN_ANOMALY":267.7899,"EPHEMERIS_TYPE":0,"CLASSIFICATION_TYPE":"U","NORAD_CAT_ID":45432,"ELEMENT_SET_NO":999,"REV_AT_EPOCH":29025,"BSTAR":-0.00010125711,"MEAN_MOTION_DOT":-2.6e-7,"MEAN_MOTION_DDOT":0},{"OBJECT_NAME":"ONEWEB-0064","OBJECT_ID":"2020-020K","EPOCH":"2026-02-15T00:49:46.083360","MEAN_MOTION":13.11418159,"ECCENTRICITY":0.00019256,"INCLINATION":87.8821,"RA_OF_ASC_NODE":45.3698,"ARG_OF_PERICENTER":91.4697,"MEAN_ANOMALY":268.6651,"EPHEMERIS_TYPE":0,"CLASSIFICATION_TYPE":"U","NORAD_CAT_ID":45433,"ELEMENT_SET_NO":999,"REV_AT_EPOCH":28667,"BSTAR":-0.00089047847,"MEAN_MOTION_DOT":-3.03e-6,"MEAN_MOTION_DDOT":0},{"OBJECT_NAME":"ONEWEB-0018","OBJECT_ID":"2020-020L","EPOCH":"2026-02-14T23:46:17.902272","MEAN_MOTION":13.11415038,"ECCENTRICITY":0.0001686,"INCLINATION":87.8835,"RA_OF_ASC_NODE":45.3732,"ARG_OF_PERICENTER":92.107,"MEAN_ANOMALY":268.0251,"EPHEMERIS_TYPE":0,"CLASSIFICATION_TYPE":"U","NORAD_CAT_ID":45434,"ELEMENT_SET_NO":999,"REV_AT_EPOCH":28661,"BSTAR":0.0012215,"MEAN_MOTION_DOT":4.46e-6,"MEAN_MOTION_DDOT":0},{"OBJECT_NAME":"ONEWEB-0083","OBJECT_ID":"2020-020M","EPOCH":"2026-02-14T23:32:52.621440","MEAN_MOTION":13.11418067,"ECCENTRICITY":0.0001876,"INCLINATION":87.8832,"RA_OF_ASC_NODE":45.3632,"ARG_OF_PERICENTER":93.4296,"MEAN_ANOMALY":266.7047,"EPHEMERIS_TYPE":0,"CLASSIFICATION_TYPE":"U","NORAD_CAT_ID":45435,"ELEMENT_SET_NO":999,"REV_AT_EPOCH":28665,"BSTAR":0.0017655,"MEAN_MOTION_DOT":6.38e-6,"MEAN_MOTION_DDOT":0}]
